satname,norad_id,inclination_deg,eccentricity,mean_motion_rev_per_day,perigee_km,apogee_km,l1,l2
STARLINK-1316,45415,53.1544,0.0001069,15.41654744,440.4962247711437,441.95420441262377,1 45415U 20019BH  26187.57126310  .00042256  00000+0  99165-3 0  9991,2 45415  53.1544 292.3750 0001069 219.8601 140.2326 15.41654744348266
STARLINK-1286,45417,53.0433,0.0005685,15.676577,361.7722356723707,369.43987152431237,1 45417U 20019BK  26187.52585361  .00053858  00000+0  48529-3 0  9991,2 45417  53.0433 273.4251 0005685 353.5844   6.5097 15.67657700348759
STARLINK-1308,45419,53.0454,0.0004299,15.6875091,359.5749089587498,365.37048517628955,1 45419U 20019BM  26187.58933183  .00046618  00000+0  40289-3 0  9999,2 45419  53.0454 292.2128 0004299 110.8132 249.3345 15.68750910348245
STARLINK-1329,45531,53.0386,0.0003718,15.77464903,335.1292278978772,340.12306937520316,1 45531U 20025A   26187.36988307  .00085278  00000+0  50294-3 0  9997,2 45531  53.0386 215.3035 0003718   1.7580 358.3452 15.77464903344089
STARLINK-1338,45532,53.0411,0.0002783,15.74327348,344.67449303170906,348.4174515740924,1 45532U 20025B   26187.40496176  .00055045  00000+0  37535-3 0  9993,2 45532  53.0411 222.6339 0002783  54.0533 306.0743 15.74327348343986
STARLINK-1350,45535,53.0705,0.0001955,15.39717795,445.6088375703948,448.27744390542284,1 45535U 20025E   26187.74099375  .00038549  00000+0  96565-3 0  9991,2 45535  53.0705 192.7741 0001955  57.8456 302.2737 15.39717795344470
STARLINK-1362,45538,53.1547,0.000465,15.3999914,442.9385828901768,449.28513432868385,1 45538U 20025H   26187.51133938 -.00007561  00000+0 -17684-3 0  9990,2 45538  53.1547 265.3374 0004650 323.5092  36.5596 15.39999140343421
STARLINK-1368,45540,53.1551,0.00031,15.4027717,443.17535727622,447.40588240051966,1 45540U 20025K   26187.45684500  .00032466  00000+0  80065-3 0  9995,2 45540  53.1551 265.9300 0003100 317.4673  42.6092 15.40277170343401
STARLINK-1371,45542,53.0404,0.0002244,15.71348924,353.5299290265639,356.55177924750114,1 45542U 20025M   26187.38277441  .00059557  00000+0  46032-3 0  9997,2 45542  53.0404 233.2273 0002244  45.0567 315.0632 15.71348924343834
STARLINK-1372,45543,53.1551,0.0003473,15.4070341,441.6627419857077,446.4014206295842,1 45543U 20025N   26187.53690066  .00018966  00000+0  46606-3 0  9993,2 45543  53.1551 264.9577 0003473 309.3705  50.6992 15.40703410342529
STARLINK-1373,45544,53.0419,0.000275,15.73125104,348.12148407578206,351.8219438684664,1 45544U 20025P   26187.35576548  .00056349  00000+0  40439-3 0  9997,2 45544  53.0419 228.0758 0002750  48.2970 311.8283 15.73125104343906
STARLINK-1327,45555,53.0385,0.000251,15.74949359,343.0878391339029,346.4627411035417,1 45555U 20025AA  26187.33937082  .00074496  00000+0  49191-3 0  9998,2 45555  53.0385 205.3630 0002510  64.5717 295.5561 15.74949359344210
STARLINK-1356,45564,53.04,0.0004324,15.67744988,362.4398488628394,368.2716213801723,1 45564U 20025AK  26187.38383046  .00049025  00000+0  44104-3 0  9997,2 45564  53.0400 219.3011 0004324  28.5296 331.5955 15.67744988344023
STARLINK-1357,45565,53.0421,0.0001314,15.7291901,349.67525724773805,351.44355866374826,1 45565U 20025AL  26187.20348420  .00070455  00000+0  50817-3 0  9995,2 45565  53.0421 175.9393 0001314 187.9599 172.1398 15.72919010344621
STARLINK-1361,45567,53.04,0.0002597,15.7144445,353.01944871530577,356.5165195640675,1 45567U 20025AN  26187.67478049  .00046647  00000+0  36065-3 0  9994,2 45567  53.0400 215.8930 0002597  61.2845 298.8433 15.71444450344102
STARLINK-1376,45570,53.1546,0.0001949,15.41060541,441.6486090134631,444.3074796577457,1 45570U 20025AR  26187.44132036  .00033987  00000+0  81622-3 0  9998,2 45570  53.1546 241.7254 0001949 333.2790  26.8114 15.41060541343742
STARLINK-1320,45572,53.0348,0.000446,15.98628916,275.2531865653282,281.1906587243275,1 45572U 20025AT  26187.83335647  .00313637  51722-4  65107-3 0  9991,2 45572  53.0348 107.3912 0004460  93.1116   1.6730 15.98628916  5856
STARLINK-1321,45573,53.0384,0.0001764,15.71966145,352.0908284638108,354.46567176405097,1 45573U 20025AU  26187.73825874  .00060053  00000+0  45221-3 0  9991,2 45573  53.0384 199.3626 0001764  58.9527 301.1663 15.71966145344038
STARLINK-1331,45578,53.0438,0.0001988,15.71672769,352.77753108065644,355.4542748348722,1 45578U 20025AZ  26187.70194258  .00050603  00000+0  38695-3 0  9995,2 45578  53.0438 206.5056 0001988  61.4095 298.7122 15.71672769344248
STARLINK-1333,45580,53.1545,0.0003732,15.38028353,449.3912320350346,454.489201669694,1 45580U 20025BB  26187.48090318  .00031464  00000+0  83542-3 0  9990,2 45580  53.1545 243.6761 0003732 340.1418  19.9440 15.38028353343726
STARLINK-1335,45581,53.1518,0.0003136,15.39724027,444.78438512495813,449.0650638385532,1 45581U 20025BC  26187.41370007  .00025600  00000+0  64557-3 0  9990,2 45581  53.1518 240.3570 0003136 307.7027  52.3693 15.39724027343758
STARLINK-1337,45582,53.0413,0.0001905,15.79074441,331.78334038781304,334.34030713966695,1 45582U 20025BD  26187.84770360  .00070381  00000+0  38763-3 0  9990,2 45582  53.0413 193.2842 0001905  87.1834 272.9404 15.79074441344424
STARLINK-1347,45586,53.0353,0.0001589,15.71865678,352.495408643219,354.6347435630032,1 45586U 20025BH  26187.32207018  .00067924  00000+0  51258-3 0  9995,2 45586  53.0353 167.7424 0001589  52.4369 307.6792 15.71865678344731
STARLINK-1364,45589,53.0405,0.0004303,15.72649648,348.4320206900784,354.2233980189494,1 45589U 20025BL  26187.44254181  .00064255  00000+0  46935-3 0  9994,2 45589  53.0405 203.6918 0004303  30.7900 329.3369 15.72649648344242
STARLINK-1365,45590,53.0423,0.0001971,15.67947375,363.4464050255792,366.10446110669454,1 45590U 20025BM  26187.43352603  .00040885  00000+0  36611-3 0  9996,2 45590  53.0423 239.3107 0001971  34.8098 325.3047 15.67947375343768
STARLINK-1443,45660,53.1319,0.000205,15.34854384,459.95095293176473,462.75514385160477,1 45660U 20035D   26187.39995683  .00040566  00000+0  11880-2 0  9997,2 45660  53.1319 233.2806 0002050  36.2513 323.8628 15.34854384336937
STARLINK-1446,45663,53.0203,0.0002162,15.4937789,417.075364939069,420.0142501526525,1 45663U 20035G   26187.31574088  .00025996  00000+0  47270-3 0  9997,2 45663  53.0203 153.3073 0002162   3.2868 356.8153 15.49377890338029
STARLINK-1448,45665,53.0392,0.0002326,15.76366732,339.1819850951115,342.3076089070764,1 45665U 20035J   26187.82406707  .00068514  00000+0  42589-3 0  9998,2 45665  53.0392 188.8463 0002326  76.3418 283.7860 15.76366732337564
STARLINK-1451,45668,53.0517,0.0001574,15.15579527,518.1340823560522,520.3053702534935,1 45668U 20035M   26187.39534535  .00014596  00000+0  77440-3 0  9999,2 45668  53.0517 247.7902 0001574 355.6591   4.4388 15.15579527336718
STARLINK-1452,45669,53.0219,0.0006953,15.64157902,370.9657912413313,380.35762372395675,1 45669U 20035N   26187.33274777  .00094794  00000+0  97293-3 0  9999,2 45669  53.0219 168.6255 0006953  48.6148 311.5463 15.64157902337814
STARLINK-1453,45670,53.0352,0.000192,15.77106052,337.3552138575551,339.9344580825664,1 45670U 20035P   26187.84669378  .00083525  00000+0  50081-3 0  9996,2 45670  53.0352 148.9084 0001920 125.2149 234.9050 15.77106052338025
STARLINK-1454,45671,53.0409,0.0001839,15.74797633,343.9706789004922,346.4435248611635,1 45671U 20035Q   26187.41393429  .00084488  00000+0  56038-3 0  9998,2 45671  53.0409 192.4548 0001839  66.2293 293.8919 15.74797633337475
STARLINK-1456,45673,53.0395,0.0001567,15.7130655,354.10679637235626,356.2170122489679,1 45673U 20035S   26187.42292968  .00066193  00000+0  51162-3 0  9993,2 45673  53.0395 187.4633 0001567  69.3850 290.7335 15.71306550337560
STARLINK-1458,45675,53.0429,0.0004965,15.62528668,377.000048818757,383.71123201068804,1 45675U 20035U   26187.47911286  .00102083  00000+0  11160-2 0  9993,2 45675  53.0429 203.6350 0004965  37.2160 322.9197 15.62528668337302
STARLINK-1460,45676,53.1564,0.0003979,15.37855174,449.73507548715406,455.1708589830796,1 45676U 20035V   26187.39453686  .00022427  00000+0  60250-3 0  9998,2 45676  53.1564 231.3063 0003979   3.0783 357.0245 15.37855174336926
STARLINK-1392,45677,53.1494,0.0004858,15.41331225,438.86610863480655,445.4927280668762,1 45677U 20035W   26187.41436781  .00036943  00000+0  87789-3 0  9993,2 45677  53.1494 229.1418 0004858 353.9330   6.1616 15.41331225336992
STARLINK-1394,45679,53.0381,0.0001631,15.69852279,358.22075395729917,360.41851231102737,1 45679U 20035Y   26187.69568102  .00048642  00000+0  40158-3 0  9996,2 45679  53.0381 176.5662 0001631  80.2300 279.8901 15.69852279337733
STARLINK-1402,45685,53.0386,0.0001338,15.67092269,366.3255903736872,368.13065007985915,1 45685U 20035AE  26187.83335647  .00047760  00000+0  44151-3 0  9992,2 45685  53.0386 168.1755 0001338 112.8683 263.2058 15.67092269  5998
STARLINK-1404,45686,53.1544,0.0004506,15.47196052,421.86757811908865,427.99850484047056,1 45686U 20035AF  26187.35760782  .00062883  00000+0  12155-2 0  9993,2 45686  53.1544 209.7918 0004506 342.3794  17.7057 15.47196052337264
STARLINK-1413,45689,53.1541,0.0004498,15.376102,450.105727763952,456.2511791458801,1 45689U 20035AJ  26187.37027834  .00039107  00000+0  10488-2 0  9992,2 45689  53.1541 216.0807 0004498 359.7348   0.3653 15.37610200337095
STARLINK-1417,45693,53.0463,0.0002517,15.18168136,509.6430095472024,513.1111909452666,1 45693U 20035AN  26187.44519848  .00012998  00000+0  64259-3 0  9991,2 45693  53.0463 233.6986 0002517 268.4027  91.6679 15.18168136336900
STARLINK-1420,45695,53.0436,0.0001669,15.73925084,346.5691796505489,348.8142612774391,1 45695U 20035AQ  26187.20210140  .00080011  00000+0  55158-3 0  9999,2 45695  53.0436 161.4883 0001669 113.0372 247.0823 15.73925084337904
STARLINK-1422,45696,53.1545,0.0001686,15.39442169,446.6069247700916,448.90861648674763,1 45696U 20035AR  26187.48746517  .00039075  00000+0  98757-3 0  9998,2 45696  53.1545 215.3055 0001686  65.2306 294.8874 15.39442169337198
